[Satellite]
VERSION=1.1
NAME=CZ-6A DEB
NICKNAME=CZ-6A DEB
TLE1=1 54389U 22151DM  22342.23999587  .00000464  00000+0  37241-3 0  9998
TLE2=2 54389  98.8128 346.0128 0128972  13.5347 346.9220 13.91584111  3107
STATUS=0
